G1 F1000
S1000
G21
G90
G0 X0.33 Y-1.98
M3
M3
G1 X0.31 Y-2.25
G1 X0.31 Y-2.25
G1 X0.29 Y-2.63
G1 X0.29 Y-2.63
G1 X0.25 Y-3.16
G1 X0.25 Y-3.16
G1 X0.20 Y-3.65
G1 X0.20 Y-3.65
G1 X0.13 Y-4.16
G1 X0.13 Y-4.16
G1 X0.08 Y-4.65
G1 X0.08 Y-4.65
G1 X0.05 Y-5.13
G1 X0.05 Y-5.13
G1 X0.02 Y-5.62
G1 X0.02 Y-5.62
G1 X0.01 Y-6.04
G1 X0.01 Y-6.04
G1 X0.01 Y-6.50
G1 X0.01 Y-6.50
G1 X0.00 Y-6.99
G1 X0.00 Y-6.99
G1 X0.01 Y-7.47
G1 X0.01 Y-7.47
G1 X0.04 Y-7.89
G1 X0.04 Y-7.89
G1 X0.08 Y-8.27
G1 X0.08 Y-8.27
